0 SL-8 R/B
1 08897U 76054J   13281.88032470 -.00000030  00000-0 -13552-3 0  7869
2 08897 073.9998 207.6925 0125780 345.8379 068.6723 12.21049207663603
0 SL-8 R/B
1 08897U 76054J   13284.20252657 -.00000099  00000-0 -77831-3 0  7875
2 08897 074.0000 204.7645 0125815 342.5390 196.5495 12.21049758663880
0 SL-8 R/B
1 08897U 76054J   13286.40216395  .00000058  00000-0  68073-3 0  7880
2 08897 074.0001 201.9911 0125827 339.4416 145.6467 12.21048124664154
0 SL-8 R/B
1 08897U 76054J   13288.52634644  .00000077  00000-0  85319-3 0  7890
2 08897 073.9998 199.3131 0125847 336.4384 123.0614 12.21047963664417
0 SL-8 R/B
1 08897U 76054J   13290.72956288 -.00000062  00000-0 -43887-3 0  7908
2 08897 073.9994 196.5355 0125872 333.3172 087.8874 12.21049483664682
0 SL-8 R/B
1 08897U 76054J   13292.85988123 -.00000027  00000-0 -10868-3 0  7912
2 08897 073.9992 193.8496 0125877 330.3113 092.2735 12.21049211664947
0 SL-8 R/B
1 08897U 76054J   13295.17819008  .00000073  00000-0  81605-3 0  7922
2 08897 073.9990 190.9267 0125893 327.0354 203.0308 12.21048510665228
